{
  "norad_id": 61962,
  "name": "STARLINK-32458",
  "history": [
    {
      "epoch": "2026-03-28T15:19:07.177728Z",
      "apogee_km": 483.6911320901372,
      "perigee_km": 482.3367408952745,
      "latitude_deg": 2.09239040696175e-05,
      "longitude_deg": 2.6377642564145902,
      "height_km": 482.63108013269806,
      "semi_major_axis_km": 6861.150936492706,
      "eccentricity": 9.87e-05,
      "inclination_deg": 43.0029,
      "raan_deg": 58.4735,
      "arg_perigee_deg": 283.6248,
      "mean_anomaly_deg": 76.4494,
      "mean_motion_rev_day": 15.27591742
    }
  ]
}